HIMAWARI-9              
1 41836U 16064A   24260.57132931 -.00000283  00000+0  00000+0 0  9996
2 41836   0.0294 189.0512 0001019 356.7844 156.6167  1.00272753 28800
SHIJIAN-17 (SJ-17)      
1 41838U 16065A   24260.62347858 -.00000035  00000+0  00000+0 0  9996
2 41838   4.1163  80.2984 0001458 212.4660  97.0499  1.00270021 28822
GOES 16                 
1 41866U 16071A   24260.57485115 -.00000256  00000+0  00000+0 0  9992
2 41866   0.0782 286.8021 0000271 302.4937 258.4686  1.00272306 28706
TIANLIAN 1-04           
1 41869U 16072A   24260.57688391  .00000022  00000+0  00000+0 0  9997
2 41869   0.0506 107.5306 0037235  52.5438 220.4397  1.00269147 28906
WGS F8 (USA 272)        
1 41879U 16075A   24260.53313396 -.00000211  00000+0  00000+0 0  9998
2 41879   0.0180 127.4151 0000174   9.9268 200.3521  1.00271962 28413
FENGYUN 4A              
1 41882U 16077A   24260.56959184 -.00000209  00000+0  00000+0 0  9995
2 41882   0.6836  85.8373 0008033 344.4721 217.5297  1.00274068 28529
ECHOSTAR 19             
1 41893U 16079A   24259.06851345 -.00000144  00000+0  00000+0 0  9990
2 41893   0.0150 144.6607 0001717  26.2225 111.2204  1.00271818 28285
JCSAT-110A (JCSAT-15)   
1 41903U 16082A   24260.39706668 -.00000359  00000+0  00000+0 0  9999
2 41903   0.0089 150.4635 0001135  44.0179  54.3739  1.00270108 28353
STAR ONE D1             
1 41904U 16082B   24260.57311353 -.00000219  00000+0  00000+0 0  9998
2 41904   0.0358  93.5687 0001538  72.1692 312.5991  1.00273553 28374
TJS-2                   
1 41911U 17001A   24260.53149782 -.00000014  00000+0  00000+0 0  9992
2 41911   0.0252 124.6276 0000447  86.6592  42.4899  1.00271275 28322
SBIRS GEO-4 (USA 273)   
1 41937U 17004A   24260.57059399 -.00000151  00000+0  00000+0 0  9993
2 41937   1.4238   6.5675 0001999 175.5812 282.4785  1.00271151 28206
HISPASAT 36W-1          
1 41942U 17006A   24259.93896354 -.00000252  00000+0  00000+0 0  9991
2 41942   0.0111  29.6966 0001088 143.8953 123.8205  1.00270160 27808
TELKOM 3S               
1 41944U 17007A   24260.52688148 -.00000371  00000+0  00000+0 0  9993
2 41944   0.0130 112.4776 0002529  72.4232 118.7516  1.00270917 27739
INTELSAT 32E (IS-32E)   
1 41945U 17007B   24259.44007826 -.00000275  00000+0  00000+0 0  9994
2 41945   0.0167 138.4009 0000481 358.9194 332.8304  1.00272041 27814
ECHOSTAR 23             
1 42070U 17014A   24260.27810059 -.00000065  00000+0  00000+0 0  9992
2 42070   0.0023  90.5839 0002118  89.1358 166.2273  1.00270985 27514
WGS F9 (USA 275)        
1 42075U 17016A   24260.37282706 -.00000105  00000+0  00000+0 0  9997
2 42075   0.0174 186.6886 0000292 357.9633 293.3915  1.00267778 27496
SES-10                  
1 42432U 17017A   24259.93279505 -.00000280  00000+0  00000+0 0  9992
2 42432   0.0236  71.3680 0002559 104.3835  88.5476  1.00271811 27332
CHINASAT 16 (SJ-13)     
1 42662U 17018A   24259.90674501 -.00000360  00000+0  00000+0 0  9999
2 42662   0.0412  99.9789 0006375 116.9572 215.3548  1.00272538 27311
KOREASAT 7              
1 42691U 17023A   24260.04070045 -.00000370  00000+0  00000+0 0  9998
2 42691   0.0075  96.6621 0002475 115.7106 273.6690  1.00274869 26979
SGDC                    
1 42692U 17023B   24260.21998364 -.00000257  00000+0  00000+0 0  9995
2 42692   0.0166 109.2398 0002463  76.4495 174.3189  1.00272203 27009
GSAT-9                  
1 42695U 17024A   24260.57431272 -.00000295  00000+0  00000+0 0  9990
2 42695   0.0401 253.5374 0002319 284.0966 122.4832  1.00273085 26907
INMARSAT 5-F4           
1 42698U 17025A   24260.26229909  .00000067  00000+0  00000+0 0  9998
2 42698   0.0256 158.5625 0000447  37.2533 310.8428  1.00270356 26877
SES-15                  
1 42709U 17026A   24259.92030814  .00000053  00000+0  00000+0 0  9993
2 42709   0.0333  28.0616 0000373 132.0690  37.3939  1.00268023  1030
QZS-2 (MICHIBIKI-2)     
1 42738U 17028A   24260.29494022 -.00000140  00000+0  00000+0 0  9992
2 42738  40.4335 252.4465 0749368 270.3677  79.7842  1.00260541  1212
VIASAT-2                
1 42740U 17029A   24259.50304278 -.00000271  00000+0  00000+0 0  9996
2 42740   0.0266 168.5256 0000178 351.7575 305.8751  1.00268519 26789
EUTELSAT 172B           
1 42741U 17029B   24260.57271681 -.00000014  00000+0  00000+0 0  9992
2 42741   0.0111 192.6604 0000288 248.2316 293.2992  1.00273031 27322
GSAT-19                 
1 42747U 17031A   24260.52776198  .00000117  00000+0  00000+0 0  9992
2 42747   0.0244 159.8540 0002859 315.8509 118.1091  1.00271809 26730
ECHOSTAR 21             
1 42749U 17032A   24260.38035712  .00000056  00000+0  00000+0 0  9991
2 42749   2.3824 322.5813 0002521 214.0784 326.3378  1.00271170 26703
BULGARIASAT-1           
1 42801U 17038A   24260.38591149  .00000003  00000+0  00000+0 0  9999
2 42801   0.0190 133.1654 0002632  45.7012 317.7849  1.00272517 26431
HELLAS-SAT 3            
1 42814U 17040A   24260.52602438  .00000144  00000+0  00000+0 0  9992
2 42814   0.0830  42.2727 0001491  68.0169 114.0555  1.00273739 26406
GSAT-17                 
1 42815U 17040B   24260.48356910 -.00000265  00000+0  00000+0 0  9994
2 42815   0.0211 175.5110 0004436  68.6069  19.3740  1.00266749 26386
INTELSAT 35E (IS-35E)   
1 42818U 17041A   24260.43992591 -.00000246  00000+0  00000+0 0  9993
2 42818   0.0146 117.8899 0001913  41.0222 320.8476  1.00270793 26416
COSMOS 2520             
1 42907U 17046A   24260.21715944  .00000129  00000+0  00000+0 0  9997
2 42907   0.0297 112.3100 0001017 147.9313 218.5973  1.00274535 25994
TDRS 13                 
1 42915U 17047A   24260.37300083 -.00000106  00000+0  00000+0 0  9994
2 42915   3.5763 346.5855 0015654 128.7360   3.3638  1.00271451 25945
QZS-3 (MICHIBIKI-3)     
1 42917U 17048A   24260.58799293 -.00000356  00000+0  00000+0 0  9992
2 42917   0.0583 155.9667 0002463  11.1797 167.6127  1.00271493 25858
AMAZONAS 5              
1 42934U 17053A   24259.37407199 -.00000289  00000+0  00000+0 0  9998
2 42934   0.0492 323.2334 0002121 266.6050 198.6563  1.00271705 25626
ASIASAT 9               
1 42942U 17057A   24260.52688148 -.00000368  00000+0  00000+0 0  9993
2 42942   0.0108 139.9877 0001989  27.5210 140.2435  1.00268445 25455
INTELSAT 37E (IS-37E)   
1 42950U 17059A   24260.47528889 -.00000149  00000+0  00000+0 0  9990
2 42950   0.0169 210.8116 0002690 323.8453 334.3638  1.00270356 25665
BSAT-4A                 
1 42951U 17059B   24259.03809355 -.00000357  00000+0  00000+0 0  9992
2 42951   0.0468   6.0269 0001701  99.5864  12.4450  1.00273889 25386
QZS-4 (MICHIBIKI-4)     
1 42965U 17062A   24258.60378021 -.00000296  00000+0  00000+0 0  9996
2 42965  40.4735 351.6619 0750118 269.5075  90.3889  1.00276987 25383
SES-11 (ECHOSTAR 105)   
1 42967U 17063A   24257.63649753 -.00000091  00000+0  00000+0 0  9997
2 42967   0.0532 290.6660 0002663 247.0756 299.5734  1.00271925 25291
KOREASAT 5A             
1 42984U 17067A   24260.49229580 -.00000366  00000+0  00000+0 0  9995
2 42984   0.0239 140.8603 0001525  49.2303  96.2182  1.00269106 25122
ALCOMSAT 1              
1 43039U 17078A   24260.44183728 -.00000194  00000+0  00000+0 0  9996
2 43039   0.0528 262.7341 0002710 293.3520 294.0585  1.00271244 24892
SBIRS GEO-3 (USA 282)   
1 43162U 18009A   24260.55808322  .00000120  00000+0  00000+0 0  9992
2 43162   2.2667 339.3953 0001929 204.3777 213.7324  1.00271576 24442
AL YAH 3                
1 43174U 18012A   24259.79903948 -.00000162  00000+0  00000+0 0  9990
2 43174   0.0333 260.8057 0001878 283.8501  78.1374  1.00272417 24436
SES-14                  
1 43175U 18012B   24260.43731951 -.00000286  00000+0  00000+0 0  9994
2 43175   0.0118 210.9848 0001159 314.2932 300.5440  1.00270324   627
GOES 17                 
1 43226U 18022A   24260.56894326 -.00000099  00000+0  00000+0 0  9994
2 43226   0.0195 339.0821 0002273 226.9968 250.0428  1.00271879 24020
HISPASAT 30W-6          
1 43228U 18023A   24260.44079472 -.00000224  00000+0  00000+0 0  9991
2 43228   0.0472  30.8066 0002906 122.6088 331.1683  1.00270637 24019
SUPERBIRD-B3            
1 43271U 18033A   24260.52063472 -.00000100  00000+0  00000+0 0  9995
2 43271   0.0409 259.1733 0001188 283.3185 162.8924  1.00272545 23654
HYLAS 4                 
1 43272U 18033B   24260.44009969 -.00000241  00000+0  00000+0 0  9994
2 43272   0.0779 269.4732 0001015 272.4282 298.9337  1.00270602 23677
IRNSS-1I                
1 43286U 18035A   24260.10002944  .00000100  00000+0  00000+0 0  9993
2 43286  29.3175  84.1920 0020258 179.0692 183.3554  1.00272632 23677
USA 283                 
1 43339U 18036A   24259.49738332 -.00000324  00000+0  00000+0 0  9999
2 43339   0.0180 165.8341 0000162 104.4091  37.8356  1.00268693   983
COSMOS 2526             
1 43432U 18037A   24260.50882512 -.00000353  00000+0  00000+0 0  9990
2 43432   0.0271 116.1169 0000851 161.1106  29.9390  1.00271961 23568
APSTAR-6C               
1 43450U 18041A   24260.58991025 -.00000326  00000+0  00000+0 0  9993
2 43450   0.0540 322.9828 0002976 299.6801  79.7471  1.00269203 23407
BANGABANDHUSAT-1        
1 43463U 18044A   24260.54192346 -.00000371  00000+0  00000+0 0  9995
2 43463   0.0249 243.2834 0002714 301.0779 125.7997  1.00273182 23306
SES-12                  
1 43488U 18049A   24260.57351275 -.00000277  00000+0  00000+0 0  9993
2 43488   0.0192 131.6950 0002136 106.5595  59.2176  1.00267387 23019
FENGYUN 2H              
1 43491U 18050A   24260.56519578 -.00000138  00000+0  00000+0 0  9996
2 43491   1.3747  86.4588 0001524 105.5891  86.8912  1.00270087 23032
BEIDOU-2 IGSO-7         
1 43539U 18057A   24259.45191521 -.00000167  00000+0  00000+0 0  9998
2 43539  55.1488 168.6041 0078371 233.4773 228.2187  1.00284142 22723
TELSTAR 19V             
1 43562U 18059A   24259.50443286 -.00000287  00000+0  00000+0 0  9993
2 43562   0.0133 196.7036 0000465 295.3376 341.5171  1.00270924 22754
